1 34375U 97051FT  26115.04766933  .00000685  00000+0  30668-3 0  9991
2 34375  86.4278 128.9834 0103888  64.2048 349.7449 14.18256561886018
